STARLINK-31339          
1 58981U 24031S   25041.16649011  .00003435  00000+0  12805-3 0  9994
2 58981  53.1620 320.1014 0001258  97.2435 262.8709 15.30196519 56439
STARLINK-31384          
1 58983U 24031U   25041.17281625  .00004688  00000+0  17029-3 0  9994
2 58983  53.1617 320.1397 0001170  97.8487 262.2647 15.30205844 56434
STARLINK-31379          
1 58984U 24031V   25041.17704979  .00002322  00000+0  90531-4 0  9990
2 58984  53.1602 320.1624 0001315  83.5469 276.5681 15.30194345 56434
STARLINK-31385          
1 58985U 24031W   25041.47880673  .00001491  00000+0  62458-4 0  9993
2 58985  53.1611 316.3246 0001068 106.0388 254.0730 15.30201934 56516
STARLINK-31229          
1 58986U 24031X   25040.98744179  .00000838  00000+0  40437-4 0  9996
2 58986  53.1603 321.1081 0001455  53.7287 306.3848 15.30186309 56402
STARLINK-31468          
1 58998U 24036A   25041.38543764 -.00000362  00000+0 -95017-7 0  9997
2 58998  53.1604 100.0718 0001493 120.3968 239.7181 15.30190351 55271
STARLINK-31440          
1 58999U 24036B   25041.19159846  .00000670  00000+0  34727-4 0  9999
2 58999  53.1587 100.9840 0000821  48.8413 311.2659 15.30196158 54973
STARLINK-31529          
1 59000U 24036C   25041.47026761  .00002279  00000+0  89046-4 0  9994
2 59000  53.1597  97.7623 0001670  92.4529 267.6663 15.30200751 55319
STARLINK-31431          
1 59002U 24036E   25040.38683018  .00000412  00000+0  26044-4 0  9995
2 59002  53.1609 105.2123 0001150  80.7033 279.4097 15.30191131 55108
STARLINK-31435          
1 59004U 24036G   25041.19265390  .00000361  00000+0  24310-4 0  9993
2 59004  53.1593 100.9934 0001344 102.0074 258.1077 15.30196304 55257
STARLINK-31484          
1 59005U 24036H   25041.39177716 -.00002332  00000+0 -66680-4 0  9998
2 59005  53.1609 100.1016 0001542  90.6198 269.4980 15.30180666 55339
STARLINK-31450          
1 59006U 24036J   25041.46446140  .00001982  00000+0  79055-4 0  9995
2 59006  53.1601  99.8412 0001551  73.2852 286.8319 15.30196885 55283
STARLINK-31456          
1 59007U 24036K   25041.39492722  .00001268  00000+0  54914-4 0  9999
2 59007  53.1597 100.1213 0001259 100.6191 259.4951 15.30201381 55274
STARLINK-31460          
1 59008U 24036L   25041.35913250 -.00001415  00000+0 -35585-4 0  9999
2 59008  53.1606 100.6100 0001434  94.0245 266.0920 15.30247792 55273
STARLINK-31488          
1 59009U 24036M   25041.19476002 -.00001290  00000+0 -31448-4 0  9996
2 59009  53.1591 101.0005 0000937  78.3221 281.7885 15.30205535 55242
STARLINK-31528          
1 59010U 24036N   25041.38026564  .00001757  00000+0  71422-4 0  9995
2 59010  53.1610 100.7406 0001342  91.3063 268.8092 15.30200780 55273
STARLINK-31491          
1 59011U 24036P   25041.18537860  .00000662  00000+0  34459-4 0  9993
2 59011  53.1592 101.6525 0001170  64.7295 295.3827 15.30199224 55232
STARLINK-31465          
1 59012U 24036Q   25041.37599943  .00005695  00000+0  20395-3 0  9999
2 59012  53.1613 100.7119 0001601 102.6507 257.4673 15.30248606 55263
STARLINK-31389          
1 59013U 24036R   25041.18326583  .00001180  00000+0  51959-4 0  9993
2 59013  53.1596 101.6389 0001041  86.5224 273.5895 15.30199905 55281
STARLINK-31454          
1 59014U 24036S   25041.37287529  .00002205  00000+0  86538-4 0  9991
2 59014  53.1607 100.6890 0000982  92.5952 267.5161 15.30205894 55261
STARLINK-31521          
1 59015U 24036T   25041.17588205  .00002896  00000+0  10987-3 0  9995
2 59015  53.1590 101.5908 0001100  70.9226 289.1894 15.30200140 55239
STARLINK-31526          
1 59016U 24036U   25041.37176479  .00002142  00000+0  84439-4 0  9992
2 59016  53.1605  75.0735 0001332  90.7799 269.3355 15.30194103 55639
STARLINK-31406          
1 59017U 24036V   25041.49915008  .00036631  00000+0  12180-2 0  9997
2 59017  53.1606 100.0557 0001769  87.3558 272.7646 15.30852678 55292
STARLINK-31527          
1 59018U 24036W   25041.16638777  .00001301  00000+0  56079-4 0  9990
2 59018  53.1597 101.5401 0001518  86.2203 273.8971 15.30187851 55245
STARLINK-31436          
1 59019U 24036X   25041.18643592  .00000736  00000+0  36977-4 0  9990
2 59019  53.1587 101.6568 0001176  59.5924 300.5193 15.30195936 55239
STARLINK-30996          
1 59023U 24038A   25041.40000913  .00000661  00000+0  35096-4 0  9994
2 59023  42.9991  79.7792 0000677 276.5838  83.4936 15.25911822 54823
STARLINK-31006          
1 59024U 24038B   25041.33242973  .00001862  00000+0  51812-4 0  9999
2 59024  43.0105  35.9923 0000325 279.5998  80.4822 15.40706398 55293
STARLINK-31178          
1 59025U 24038C   25041.52866088  .00001521  00000+0  67986-4 0  9991
2 59025  43.0013  79.0263 0001255 275.2471  84.8237 15.25913332 54557
STARLINK-31227          
1 59026U 24038D   25041.13365454 -.00007694  00000+0 -28467-3 0  9999
2 59026  42.9987  81.2266 0000133 287.4422  72.6414 15.25904641 54756
STARLINK-30863          
1 59027U 24038E   25041.11329835  .00001294  00000+0  59298-4 0  9996
2 59027  43.0012  81.0731 0001398 269.1722  90.8968 15.25908587 54655
STARLINK-31206          
1 59028U 24038F   25041.30724476  .00012681  00000+0  31080-3 0  9998
2 59028  43.0055  22.5258 0001433 309.6631  50.4099 15.40652954 55464
STARLINK-31224          
1 59029U 24038G   25041.39096445 -.00000206  00000+0  19684-5 0  9995
2 59029  43.0017  79.7171 0001160 244.9072 115.1658 15.25906664 54796
STARLINK-31186          
1 59030U 24038H   25041.38870118  .00000899  00000+0  44175-4 0  9992
2 59030  42.9971  79.6988 0000026  57.2376 302.8477 15.25911963 54794
STARLINK-31211          
1 59031U 24038J   25040.79732134  .00001464  00000+0  65801-4 0  9990
2 59031  42.9979  83.0046 0000132 313.9546  46.1294 15.25906877 54597
STARLINK-30862          
1 59032U 24038K   25041.25002315 -.01067550  00000+0 -40078-1 0  9991
2 59032  43.0003  72.4746 0001261 283.7438 141.9006 15.29361322 54752
STARLINK-31210          
1 59033U 24038L   25041.25002315 -.00031181  00000+0 -11278-2 0  9993
2 59033  43.0007  79.9299 0001302 265.3616 280.5776 15.27595603 54834
STARLINK-31231          
1 59034U 24038M   25041.58335648  .00017178  00000+0  63318-3 0  9999
2 59034  43.0016  77.9909 0001590 272.4337 330.0555 15.27533336 54717
STARLINK-31207          
1 59035U 24038N   25041.25002315 -.00030848  00000+0 -11158-2 0  9991
2 59035  43.0024  79.8202 0001269 242.5690 345.8745 15.27589322 54831
STARLINK-31217          
1 59036U 24038P   25040.99069698  .00308420  00000+0  14619-2 0  9996
2 59036  42.9943  18.3652 0010877 165.1772 194.9420 15.81254458 55522
STARLINK-31208          
1 59037U 24038Q   25041.50817469 -.00001902  00000+0 -62919-4 0  9997
2 59037  42.9976  77.9901 0000942 181.5387 178.5461 15.25896983 54887
STARLINK-31235          
1 59038U 24038R   25040.91667824  .00041503  00000+0  15110-2 0  9998
2 59038  43.0026  81.6658 0001236 262.3039 304.9460 15.27541878  5899
STARLINK-31220          
1 59039U 24038S   25041.43832618  .00001035  00000+0  49414-4 0  9994
2 59039  42.9995  79.2252 0001026 273.1962  86.8772 15.25907797 54809
STARLINK-31225          
1 59040U 24038T   25040.79463287  .00001441  00000+0  64913-4 0  9998
2 59040  42.9982  80.3520 0000568 274.0421  86.0365 15.25908304 54623
STARLINK-31240          
1 59041U 24038U   25040.91667824  .00043433  00000+0  15805-2 0  9997
2 59041  43.0006  82.0121 0001689 277.1496 155.6803 15.27539342  5899
STARLINK-31202          
1 59042U 24038V   25041.15147962  .00006031  00000+0  24027-3 0  9991
2 59042  43.0005  79.6353 0001054 322.9194  37.1584 15.25900400 54831
STARLINK-31234          
1 59043U 24038W   25040.91667824  .00042712  00000+0  15542-2 0  9996
2 59043  43.0021  81.9205 0001227 256.4091 211.7827 15.27547981  5852
STARLINK-31153          
1 59044U 24038X   25041.25002315 -.00026305  00000+0 -94953-3 0  9999
2 59044  43.0021  79.7339 0000784 281.8445 341.9171 15.27588494 54663
STARLINK-31241          
1 59045U 24038Y   25041.48794309  .00002513  00000+0  10587-3 0  9990
2 59045  43.0029  78.7225 0000965 231.7620 128.3144 15.25916969 54875
STARLINK-31205          
1 59046U 24038Z   25040.91667824  .00043288  00000+0  15752-2 0  9991
2 59046  43.0015  81.8630 0001055 263.4415 225.9745 15.27542205  5654
STARLINK-31265          
1 59074U 24041A   25041.31528267 -.00001640  00000+0 -52872-4 0  9992
2 59074  43.0001   4.8423 0001198 259.1499 100.9217 15.25911278 54295
STARLINK-31276          
1 59075U 24041B   25041.16414148  .00001870  00000+0  81294-4 0  9991
2 59075  43.0003   6.3039 0001632 210.4699 149.6058 15.25913067 54294
STARLINK-31259          
1 59076U 24041C   25041.16186615  .00000755  00000+0  38721-4 0  9995
2 59076  43.0067   6.2834 0002232 244.2422 115.8199 15.25922407 54269
STARLINK-31281          
1 59077U 24041D   25040.96324144  .00002111  00000+0  90474-4 0  9995
2 59077  43.0121   7.3774 0001318  66.3517 293.7473 15.25934225 54282
STARLINK-31274          
1 59078U 24041E   25041.31301810 -.00000191  00000+0  25398-5 0  9992
2 59078  43.0014   4.8277 0001475 288.3898  71.6793 15.25908553 54290
STARLINK-31257          
1 59079U 24041F   25040.59072618 -.00000716  00000+0 -17552-4 0  9999
2 59079  43.0024   8.8691 0001029 276.3560  83.7174 15.25899215 54183
STARLINK-31299          
1 59080U 24041G   25039.37506667 -.00003297  00000+0 -71714-4 0  9998
2 59080  43.0002 280.0878 0005284 274.7941  85.2312 15.40656191 55121
STARLINK-31292          
1 59081U 24041H   25040.95420481  .00001038  00000+0  49520-4 0  9993
2 59081  43.0002   7.2987 0000440 300.5248  59.5559 15.25904830 54236
STARLINK-31286          
1 59082U 24041J   25040.62465248  .00001965  00000+0  84977-4 0  9992
2 59082  43.0030   9.1179 0001190 263.0464  97.0252 15.25902038 54255
STARLINK-31252          
1 59083U 24041K   25041.58335648 -.01318956  00000+0 -21407-1 0  9999
2 59083  42.9991 286.0927 0001653 261.4881 297.6855 15.54732968 55259
